[{"OBJECT_NAME":"TEVEL2-9","OBJECT_ID":"2025-052AD","EPOCH":"2026-03-09T16:51:18.321696","MEAN_MOTION":15.28633834,"ECCENTRICITY":0.000799,"INCLINATION":97.4057,"RA_OF_ASC_NODE":324.3929,"ARG_OF_PERICENTER":124.2475,"MEAN_ANOMALY":235.9522,"EPHEMERIS_TYPE":0,"CLASSIFICATION_TYPE":"U","NORAD_CAT_ID":63237,"ELEMENT_SET_NO":999,"REV_AT_EPOCH":5481,"BSTAR":0.00067240159,"MEAN_MOTION_DOT":0.00018694,"MEAN_MOTION_DDOT":0},{"OBJECT_NAME":"STARLINK-36557","OBJECT_ID":"2026-012H","EPOCH":"2026-03-09T23:10:02.701920","MEAN_MOTION":15.27593449,"ECCENTRICITY":0.00012302,"INCLINATION":42.999,"RA_OF_ASC_NODE":312.8687,"ARG_OF_PERICENTER":254.5473,"MEAN_ANOMALY":105.5243,"EPHEMERIS_TYPE":0,"CLASSIFICATION_TYPE":"U","NORAD_CAT_ID":67500,"ELEMENT_SET_NO":999,"REV_AT_EPOCH":780,"BSTAR":0.0010436587,"MEAN_MOTION_DOT":0.0002858,"MEAN_MOTION_DDOT":0}]
